CCSDS_OMM_VERS = 2.0
CREATION_DATE  = 
ORIGINATOR     = 

OBJECT_NAME    = CZ-2C R/B
OBJECT_ID      = 2022-132E
CENTER_NAME    = EARTH
REF_FRAME      = TEME
TIME_SYSTEM    = UTC
MEAN_ELEMENT_THEORY = SGP/SGP4

EPOCH          = 2025-12-10T17:45:38.203200
MEAN_MOTION    = 15.54610433
ECCENTRICITY   = .00233438
INCLINATION    = 97.2950
RA_OF_ASC_NODE = 340.9003
ARG_OF_PERICENTER = 63.7311
MEAN_ANOMALY   = 296.6338

EPHEMERIS_TYPE = 0
CLASSIFICATION_TYPE = U
NORAD_CAT_ID   = 54039
ELEMENT_SET_NO = 999
REV_AT_EPOCH   = 17652
BSTAR          = .69890133E-3
MEAN_MOTION_DOT = .46843E-3
MEAN_MOTION_DDOT = 0

CCSDS_OMM_VERS = 2.0
CREATION_DATE  = 
ORIGINATOR     = 

OBJECT_NAME    = GSLV R/B
OBJECT_ID      = 2022-138AN
CENTER_NAME    = EARTH
REF_FRAME      = TEME
TIME_SYSTEM    = UTC
MEAN_ELEMENT_THEORY = SGP/SGP4

EPOCH          = 2025-12-11T02:48:09.379872
MEAN_MOTION    = 14.96115449
ECCENTRICITY   = .00240502
INCLINATION    = 87.3828
RA_OF_ASC_NODE = 196.0177
ARG_OF_PERICENTER = 110.7405
MEAN_ANOMALY   = 249.6407

EPHEMERIS_TYPE = 0
CLASSIFICATION_TYPE = U
NORAD_CAT_ID   = 54149
ELEMENT_SET_NO = 999
REV_AT_EPOCH   = 17068
BSTAR          = .33233489E-3
MEAN_MOTION_DOT = .3786E-4
MEAN_MOTION_DDOT = 0

CCSDS_OMM_VERS = 2.0
CREATION_DATE  = 
ORIGINATOR     = 

OBJECT_NAME    = XRISM
OBJECT_ID      = 2023-137A
CENTER_NAME    = EARTH
REF_FRAME      = TEME
TIME_SYSTEM    = UTC
MEAN_ELEMENT_THEORY = SGP/SGP4

EPOCH          = 2025-12-11T02:46:56.059968
MEAN_MOTION    = 15.10315896
ECCENTRICITY   = .00076807
INCLINATION    = 31.0009
RA_OF_ASC_NODE = 136.0275
ARG_OF_PERICENTER = 229.3178
MEAN_ANOMALY   = 130.6793

EPHEMERIS_TYPE = 0
CLASSIFICATION_TYPE = U
NORAD_CAT_ID   = 57800
ELEMENT_SET_NO = 999
REV_AT_EPOCH   = 12438
BSTAR          = .49818733E-3
MEAN_MOTION_DOT = .8471E-4
MEAN_MOTION_DDOT = 0

CCSDS_OMM_VERS = 2.0
CREATION_DATE  = 
ORIGINATOR     = 

OBJECT_NAME    = ACS3
OBJECT_ID      = 2024-077B
CENTER_NAME    = EARTH
REF_FRAME      = TEME
TIME_SYSTEM    = UTC
MEAN_ELEMENT_THEORY = SGP/SGP4

EPOCH          = 2025-12-11T03:57:49.284864
MEAN_MOTION    = 13.85371322
ECCENTRICITY   = .00777783
INCLINATION    = 97.2691
RA_OF_ASC_NODE = 301.1225
ARG_OF_PERICENTER = 341.9736
MEAN_ANOMALY   = 17.8670

EPHEMERIS_TYPE = 0
CLASSIFICATION_TYPE = U
NORAD_CAT_ID   = 59588
ELEMENT_SET_NO = 999
REV_AT_EPOCH   = 8192
BSTAR          = .31411405E-1
MEAN_MOTION_DOT = .36733E-3
MEAN_MOTION_DDOT = 0

CCSDS_OMM_VERS = 2.0
CREATION_DATE  = 
ORIGINATOR     = 

OBJECT_NAME    = SZ-21 MODULE
OBJECT_ID      = 2025-246C
CENTER_NAME    = EARTH
REF_FRAME      = TEME
TIME_SYSTEM    = UTC
MEAN_ELEMENT_THEORY = SGP/SGP4

EPOCH          = 2025-12-11T04:43:33.570048
MEAN_MOTION    = 15.62366200
ECCENTRICITY   = .00062999
INCLINATION    = 41.4772
RA_OF_ASC_NODE = 25.4567
ARG_OF_PERICENTER = 251.9430
MEAN_ANOMALY   = 108.0724

EPHEMERIS_TYPE = 0
CLASSIFICATION_TYPE = U
NORAD_CAT_ID   = 66515
ELEMENT_SET_NO = 999
REV_AT_EPOCH   = 420
BSTAR          = .45629061E-3
MEAN_MOTION_DOT = .41492E-3
MEAN_MOTION_DDOT = 0

