CZ-2C R/B               
1 54039U 22132E   25344.74002550  .00046843  00000+0  69890-3 0  9991
2 54039  97.2950 340.9003 0023343  63.7311 296.6338 15.54610433176520
GSLV R/B                
1 54149U 22138AN  25345.11677523  .00003786  00000+0  33233-3 0  9990
2 54149  87.3828 196.0177 0024050 110.7405 249.6407 14.96115449170689
XRISM                   
1 57800U 23137A   25345.11592662  .00008471  00000+0  49819-3 0  9990
2 57800  31.0009 136.0275 0007680 229.3178 130.6793 15.10315896124388
ACS3                    
1 59588U 24077B   25345.16515376  .00036733  00000+0  31411-1 0  9990
2 59588  97.2691 301.1225 0077778 341.9736  17.8670 13.85371322 81928
SZ-21 MODULE            
1 66515U 25246C   25345.19691632  .00041492  00000+0  45629-3 0  9996
2 66515  41.4772  25.4567 0006299 251.9430 108.0724 15.62366200  4208
